[{"OBJECT_NAME":"TEVEL2-2","OBJECT_ID":"2025-052K","EPOCH":"2026-03-09T15:33:48.895776","MEAN_MOTION":15.30343745,"ECCENTRICITY":0.0004693,"INCLINATION":97.3987,"RA_OF_ASC_NODE":324.77,"ARG_OF_PERICENTER":105.793,"MEAN_ANOMALY":254.3828,"EPHEMERIS_TYPE":0,"CLASSIFICATION_TYPE":"U","NORAD_CAT_ID":63219,"ELEMENT_SET_NO":999,"REV_AT_EPOCH":5485,"BSTAR":0.00069428,"MEAN_MOTION_DOT":0.00020339,"MEAN_MOTION_DDOT":0},{"OBJECT_NAME":"STARLINK-36420","OBJECT_ID":"2026-003P","EPOCH":"2026-03-09T12:00:46.948032","MEAN_MOTION":15.27592799,"ECCENTRICITY":0.00015663,"INCLINATION":43.0005,"RA_OF_ASC_NODE":228.245,"ARG_OF_PERICENTER":255.7732,"MEAN_ANOMALY":104.2945,"EPHEMERIS_TYPE":0,"CLASSIFICATION_TYPE":"U","NORAD_CAT_ID":67347,"ELEMENT_SET_NO":999,"REV_AT_EPOCH":879,"BSTAR":0.0010183321,"MEAN_MOTION_DOT":0.00027877,"MEAN_MOTION_DDOT":0}]
